COMMENT,ORIGINATOR,NORAD_CAT_ID,OBJECT_NAME,OBJECT_TYPE,CLASSIFICATION_TYPE,INTLDES,EPOCH,EPOCH_MICROSECONDS,MEAN_MOTION,ECCENTRICITY,INCLINATION,RA_OF_ASC_NODE,ARG_OF_PERICENTER,MEAN_ANOMALY,EPHEMERIS_TYPE,ELEMENT_SET_NO,REV_AT_EPOCH,BSTAR,MEAN_MOTION_DOT,MEAN_MOTION_DDOT,FILE,TLE_LINE0,TLE_LINE1,TLE_LINE2,OBJECT_ID,OBJECT_NUMBER,SEMIMAJOR_AXIS,PERIOD,APOGEE,PERIGEE,DECAYED
GENERATED VIA SPACETRACK.ORG API,18 SPCS,52365,STARLINK-3874,PAYLOAD,U,22045AL,2023-10-27 21:21:24,402528,15.08846176,0.0001216,53.2153,106.8687,90.0873,270.0258,0,999,8551,0.00016644,2.362e-05,0,4056660,0 STARLINK-3874,1 52365U 22045AL  23300.88986577  .00002362  00000-0  16644-3 0  9997,2 52365  53.2153 106.8687 0001216  90.0873 270.0258 15.08846176 85514,2022-045AL,52365,6917.862,95.437,540.568,538.885,0
GENERATED VIA SPACETRACK.ORG API,18 SPCS,52365,STARLINK-3874,PAYLOAD,U,22045AL,2023-10-28 11:39:53,279712,15.08832647,0.0001231,53.2153,104.192,89.1738,270.9395,0,999,8560,-3.5749e-05,-8.57e-06,0,4057654,0 STARLINK-3874,1 52365U 22045AL  23301.48603333 -.00000857  00000-0 -35749-4 0  9997,2 52365  53.2153 104.1920 0001231  89.1738 270.9395 15.08832647 85600,2022-045AL,52365,6917.903,95.438,540.619,538.916,0
GENERATED VIA SPACETRACK.ORG API,18 SPCS,52365,STARLINK-3874,PAYLOAD,U,22045AL,2023-10-28 11:39:53,279712,15.08832647,0.0001231,53.2153,104.192,89.1738,270.9395,0,999,8560,-3.5749e-05,-8.57e-06,0,4057688,0 STARLINK-3874,1 52365U 22045AL  23301.48603333 -.00000857  00000-0 -35749-4 0  9997,2 52365  53.2153 104.1920 0001231  89.1738 270.9395 15.08832647 85600,2022-045AL,52365,6917.903,95.438,540.619,538.916,0
GENERATED VIA SPACETRACK.ORG API,18 SPCS,52365,STARLINK-3874,PAYLOAD,U,22045AL,2023-10-28 18:01:25,783104,15.08837871,0.0001293,53.2167,103.0029,88.6112,271.5028,0,999,8564,6.1035e-05,6.84e-06,0,4058258,0 STARLINK-3874,1 52365U 22045AL  23301.75099286  .00000684  00000-0  61035-4 0  9996,2 52365  53.2167 103.0029 0001293  88.6112 271.5028 15.08837871 85649,2022-045AL,52365,6917.887,95.438,540.646,538.857,0
GENERATED VIA SPACETRACK.ORG API,18 SPCS,52365,STARLINK-3874,PAYLOAD,U,22045AL,2023-10-29 03:33:44,427168,15.08842552,0.0001268,53.2167,101.2184,86.1878,273.9259,0,999,8570,4.346e-05,4.04e-06,0,4058787,0 STARLINK-3874,1 52365U 22045AL  23302.14843087  .00000404  00000-0  43460-4 0  9998,2 52365  53.2167 101.2184 0001268  86.1878 273.9259 15.08842552 85706,2022-045AL,52365,6917.873,95.437,540.615,538.86,0
GENERATED VIA SPACETRACK.ORG API,18 SPCS,52365,STARLINK-3874,PAYLOAD,U,22045AL,2023-10-29 14:41:26,140704,15.08845768,0.0001511,53.2162,99.1359,87.6944,272.4221,0,999,8577,8.187e-05,1.015e-05,0,4059417,0 STARLINK-3874,1 52365U 22045AL  23302.61210811  .00001015  00000-0  81870-4 0  9999,2 52365  53.2162  99.1359 0001511  87.6944 272.4221 15.08845768 85773,2022-045AL,52365,6917.863,95.437,540.773,538.682,0
GENERATED VIA SPACETRACK.ORG API,18 SPCS,52365,STARLINK-3874,PAYLOAD,U,22045AL,2023-10-29 19:27:35,140032,15.08852718,0.0001402,53.2162,98.2459,94.0412,266.074,0,999,8580,0.00022395,3.279e-05,0,4059912,0 STARLINK-3874,1 52365U 22045AL  23302.81082338  .00003279  00000-0  22395-3 0  9992,2 52365  53.2162  98.2459 0001402  94.0412 266.0740 15.08852718 85807,2022-045AL,52365,6917.842,95.437,540.676,538.737,0
GENERATED VIA SPACETRACK.ORG API,18 SPCS,52365,STARLINK-3874,PAYLOAD,U,22045AL,2023-10-30 09:46:04,147680,15.08837938,0.0001487,53.216,95.5682,87.8999,272.2163,0,999,8589,0.00010615,1.402e-05,0,4061227,0 STARLINK-3874,1 52365U 22045AL  23303.40699245  .00001402  00000-0  10615-3 0  9997,2 52365  53.2160  95.5682 0001487  87.8999 272.2163 15.08837938 85890,2022-045AL,52365,6917.887,95.438,540.78,538.723,0
GENERATED VIA SPACETRACK.ORG API,18 SPCS,52365,STARLINK-3874,PAYLOAD,U,22045AL,2023-10-30 09:46:04,147680,15.08837938,0.0001487,53.216,95.5682,87.8999,272.2163,0,999,8589,0.00010615,1.402e-05,0,4061878,0 STARLINK-3874,1 52365U 22045AL  23303.40699245  .00001402  00000-0  10615-3 0  9997,2 52365  53.2160  95.5682 0001487  87.8999 272.2163 15.08837938 85890,2022-045AL,52365,6917.887,95.438,540.78,538.723,0
GENERATED VIA SPACETRACK.ORG API,18 SPCS,52365,STARLINK-3874,PAYLOAD,U,22045AL,2023-10-31 03:15:18,997920,15.08834173,0.0001509,53.2157,92.2967,86.5393,273.5772,0,999,8600,-2.1693e-05,-6.33e-06,0,4063002,0 STARLINK-3874,1 52365U 22045AL  23304.13563655 -.00000633  00000-0 -21693-4 0  9999,2 52365  53.2157  92.2967 0001509  86.5393 273.5772 15.08834173 86007,2022-045AL,52365,6917.898,95.438,540.807,538.719,0
GENERATED VIA SPACETRACK.ORG API,18 SPCS,52365,STARLINK-3874,PAYLOAD,U,22045AL,2023-10-31 14:23:00,904128,15.08836824,0.0001194,53.2156,90.2157,87.4619,272.651,0,999,8607,2.5254e-05,1.14e-06,0,4063043,0 STARLINK-3874,1 52365U 22045AL  23304.59931602  .00000114  00000-0  25254-4 0  9999,2 52365  53.2156  90.2157 0001194  87.4619 272.6510 15.08836824 86078,2022-045AL,52365,6917.89,95.438,540.581,538.929,0
GENERATED VIA SPACETRACK.ORG API,18 SPCS,52365,STARLINK-3874,PAYLOAD,U,22045AL,2023-10-31 17:33:46,937664,15.08842177,0.0001156,53.2159,89.6208,90.4112,269.7013,0,999,8609,4.0614e-05,3.59e-06,0,4063601,0 STARLINK-3874,1 52365U 22045AL  23304.73179326  .00000359  00000-0  40614-4 0  9990,2 52365  53.2159  89.6208 0001156  90.4112 269.7013 15.08842177 86095,2022-045AL,52365,6917.874,95.437,540.538,538.939,0
GENERATED VIA SPACETRACK.ORG API,18 SPCS,52365,STARLINK-3874,PAYLOAD,U,22045AL,2023-10-31 17:33:46,937664,15.08842177,0.0001156,53.2159,89.6208,90.4112,269.7013,0,999,8609,4.0614e-05,3.59e-06,0,4063660,0 STARLINK-3874,1 52365U 22045AL  23304.73179326  .00000359  00000-0  40614-4 0  9990,2 52365  53.2159  89.6208 0001156  90.4112 269.7013 15.08842177 86095,2022-045AL,52365,6917.874,95.437,540.538,538.939,0
GENERATED VIA SPACETRACK.ORG API,18 SPCS,52365,STARLINK-3874,PAYLOAD,U,22045AL,2023-11-01 14:13:47,636544,15.08848023,0.0001288,53.2154,85.7563,85.8967,274.2172,0,999,8622,-2.6188e-05,-7.05e-06,0,4064888,0 STARLINK-3874,1 52365U 22045AL  23305.59291246 -.00000705  00000-0 -26188-4 0  9998,2 52365  53.2154  85.7563 0001288  85.8967 274.2172 15.08848023 86221,2022-045AL,52365,6917.856,95.437,540.612,538.83,0
GENERATED VIA SPACETRACK.ORG API,18 SPCS,52365,STARLINK-3874,PAYLOAD,U,22045AL,2023-11-01 15:49:11,85312,15.08843136,0.0001251,53.2155,85.4588,87.5274,272.5862,0,999,8623,0.00015637,2.202e-05,0,4065398,0 STARLINK-3874,1 52365U 22045AL  23305.65915608  .00002202  00000-0  15637-3 0  9998,2 52365  53.2155  85.4588 0001251  87.5274 272.5862 15.08843136 86234,2022-045AL,52365,6917.871,95.437,540.601,538.87,0
GENERATED VIA SPACETRACK.ORG API,18 SPCS,52365,STARLINK-3874,PAYLOAD,U,22045AL,2023-11-02 02:56:53,13120,15.08845158,0.0001174,53.2158,83.3778,84.0325,276.0801,0,999,8630,0.00026214,3.887e-05,0,4065903,0 STARLINK-3874,1 52365U 22045AL  23306.12283580  .00003887  00000-0  26214-3 0  9991,2 52365  53.2158  83.3778 0001174  84.0325 276.0801 15.08845158 86304,2022-045AL,52365,6917.865,95.437,540.542,538.917,0
GENERATED VIA SPACETRACK.ORG API,18 SPCS,52365,STARLINK-3874,PAYLOAD,U,22045AL,2023-11-02 12:29:12,104736,15.08839344,0.0001317,53.216,81.5925,89.5025,270.6118,0,999,8636,0.00012656,1.727e-05,0,4066351,0 STARLINK-3874,1 52365U 22045AL  23306.52027899  .00001727  00000-0  12656-3 0  9990,2 52365  53.2160  81.5925 0001317  89.5025 270.6118 15.08839344 86364,2022-045AL,52365,6917.882,95.438,540.658,538.836,0
GENERATED VIA SPACETRACK.ORG API,18 SPCS,52365,STARLINK-3874,PAYLOAD,U,22045AL,2023-11-02 14:04:35,153472,15.08840455,0.0001318,53.2162,81.2948,90.1251,269.9893,0,999,8637,0.00013197,1.813e-05,0,4066590,0 STARLINK-3874,1 52365U 22045AL  23306.58651798  .00001813  00000-0  13197-3 0  9994,2 52365  53.2162  81.2948 0001318  90.1251 269.9893 15.08840455 86375,2022-045AL,52365,6917.879,95.438,540.656,538.832,0
GENERATED VIA SPACETRACK.ORG API,18 SPCS,52365,STARLINK-3874,PAYLOAD,U,22045AL,2023-11-02 18:50:44,201184,15.08846842,0.0001423,53.2171,80.4015,99.1066,261.0088,0,999,8640,0.00015027,2.105e-05,0,4067000,0 STARLINK-3874,1 52365U 22045AL  23306.78523381  .00002105  00000-0  15027-3 0  9991,2 52365  53.2171  80.4015 0001423  99.1066 261.0088 15.08846842 86400,2022-045AL,52365,6917.859,95.437,540.709,538.74,0
GENERATED VIA SPACETRACK.ORG API,18 SPCS,52365,STARLINK-3874,PAYLOAD,U,22045AL,2023-11-02 18:50:44,201184,15.08846842,0.0001423,53.2171,80.4015,99.1066,261.0088,0,999,8640,0.00015027,2.105e-05,0,4067643,0 STARLINK-3874,1 52365U 22045AL  23306.78523381  .00002105  00000-0  15027-3 0  9991,2 52365  53.2171  80.4015 0001423  99.1066 261.0088 15.08846842 86400,2022-045AL,52365,6917.859,95.437,540.709,538.74,0
GENERATED VIA SPACETRACK.ORG API,18 SPCS,52365,STARLINK-3874,PAYLOAD,U,22045AL,2023-11-03 09:09:12,985920,15.08836731,0.0001476,53.2171,77.7228,104.8253,255.2903,0,999,8649,6.184e-05,6.96e-06,0,4068050,0 STARLINK-3874,1 52365U 22045AL  23307.38140030  .00000696  00000-0  61840-4 0  9992,2 52365  53.2171  77.7228 0001476 104.8253 255.2903 15.08836731 86491,2022-045AL,52365,6917.89,95.438,540.776,538.734,0
GENERATED VIA SPACETRACK.ORG API,18 SPCS,52365,STARLINK-3874,PAYLOAD,U,22045AL,2023-11-03 13:55:22,184832,15.08841312,0.0001355,53.2167,76.8344,99.2675,260.8471,0,999,8652,4.981e-05,5.05e-06,0,4068165,0 STARLINK-3874,1 52365U 22045AL  23307.58011788  .00000505  00000-0  49810-4 0  9993,2 52365  53.2167  76.8344 0001355  99.2675 260.8471 15.08841312 86523,2022-045AL,52365,6917.876,95.437,540.679,538.804,0
GENERATED VIA SPACETRACK.ORG API,18 SPCS,52365,STARLINK-3874,PAYLOAD,U,22045AL,2023-11-03 15:30:45,181728,15.08844029,0.0001317,53.2171,76.5367,94.05,266.0643,0,999,8653,3.9965e-05,3.48e-06,0,4068473,0 STARLINK-3874,1 52365U 22045AL  23307.64635627  .00000348  00000-0  39965-4 0  9999,2 52365  53.2171  76.5367 0001317  94.0500 266.0643 15.08844029 86536,2022-045AL,52365,6917.868,95.437,540.644,538.822,0
